satname,norad_id,inclination_deg,eccentricity,mean_motion_rev_per_day,perigee_km,apogee_km,l1,l2
STARLINK-1452,45669,53.0357,0.0005126,15.39396946,444.3924310643224,451.390475434594,1 45669U 20035N   26035.63124228  .00115503  00000+0  28739-2 0  9999,2 45669  53.0357 178.5846 0005126 264.4777  95.5642 15.39396946314267
STARLINK-1453,45670,53.0497,0.0004672,15.45593836,426.45317077920663,432.81435177854473,1 45670U 20035P   26035.91670139  .00107026  00000+0  21672-2 0  9999,2 45670  53.0497 170.3667 0004672 251.0277  30.3258 15.45593836  5943
STARLINK-1454,45671,53.0546,0.000218,15.44210655,432.2134139934187,435.1833742252511,1 45671U 20035Q   26035.75234189  .00146038  00000+0  30815-2 0  9998,2 45671  53.0546 210.3438 0002180 274.5812  85.4945 15.44210655313813
STARLINK-1456,45673,53.0519,0.0004684,15.4273685,434.8433229719285,441.22871385557755,1 45673U 20035S   26035.73734403  .00088087  00000+0  19714-2 0  9996,2 45673  53.0519 203.7572 0004684 170.5875 189.5219 15.42736850313925
STARLINK-1457,45674,53.0488,0.0004636,15.68461144,360.17753779334544,366.42820084017603,1 45674U 20035T   26035.91670139  .00200120  00000+0  17017-2 0  9990,2 45674  53.0488 185.4385 0004636 314.8595 118.1040 15.68461144  5992
STARLINK-1458,45675,53.0548,4.88e-05,15.38016643,451.6415754622749,452.3081943822435,1 45675U 20035U   26035.72641365  .00105280  00000+0  27456-2 0  9998,2 45675  53.0548 211.4751 0000488 345.8668  14.2321 15.38016643313776
STARLINK-1460,45676,53.0559,0.0001235,15.06389875,546.3873053994848,548.0978741581603,1 45676U 20035V   26035.79319892 -.00001172  00000+0 -59811-4 0  9992,2 45676  53.0559 214.2958 0001235  86.2804 273.8327 15.06389875313738
STARLINK-1392,45677,53.0563,9.53e-05,15.06406233,546.5324708598246,547.8524386539011,1 45677U 20035W   26035.80424467 -.00005463  00000+0 -34811-3 0  9999,2 45677  53.0563 214.2451 0000953 329.4172  30.6762 15.06406233313772
STARLINK-1394,45679,53.0543,0.0005514,15.41955989,436.577300371041,444.0967135058918,1 45679U 20035Y   26035.70855991  .00022086  00000+0  51881-3 0  9994,2 45679  53.0543 193.8378 0005514 172.5179 187.5908 15.41955989314056
STARLINK-1402,45685,53.0501,0.0005938,15.39728232,442.8595840338894,450.96501258055923,1 45685U 20035AE  26035.91670139  .00101084  00000+0  24935-2 0  9998,2 45685  53.0501 178.8421 0005938 166.3764 119.4509 15.39728232  5829
STARLINK-1404,45686,53.1562,5.15e-05,15.29362973,477.36234455509293,478.0684973544512,1 45686U 20035AF  26035.70743869 -.00008549  00000+0 -28424-3 0  9999,2 45686  53.1562 202.8482 0000515 115.6400 244.4654 15.29362973313921
STARLINK-1413,45689,53.1604,0.0001365,15.30164453,474.38571136318933,476.256705454085,1 45689U 20035AJ  26035.91670139  .00062891  00000+0  21199-2 0  9993,2 45689  53.1604 201.8040 0001365  70.6487 303.4657 15.30164453  5785
STARLINK-1417,45693,53.0531,0.00068,15.10496401,529.9843419940407,539.3857799969956,1 45693U 20035AN  26035.73593618  .00037462  00000+0  22535-2 0  9995,2 45693  53.0531 203.4357 0006800 140.0199 220.1294 15.10496401313916
STARLINK-1420,45695,53.0557,0.0001048,15.47060942,424.61612235291886,426.04212885284505,1 45695U 20035AQ  26035.65496922  .00101387  00000+0  19545-2 0  9993,2 45695  53.0557 180.8105 0001048  33.2573 326.8499 15.47060942314237
STARLINK-1422,45696,53.1568,0.0001346,15.2933342,476.8809331889297,478.72655243689405,1 45696U 20035AR  26035.91670139  .00061846  00000+0  21392-2 0  9995,2 45696  53.1568 201.7768 0001346  80.6301 270.0469 15.29333420  5839
STARLINK-1351,45697,53.0561,0.0001376,15.4364809,434.4157546576507,436.29082718571135,1 45697U 20035AS  26035.69653614  .00067554  00000+0  14727-2 0  9996,2 45697  53.0561 179.8252 0001376   6.0181 354.0841 15.43648090314250
STARLINK-1398,45699,53.0425,0.0004363,15.77590901,334.33863230499264,340.19849519992295,1 45699U 20035AU  26035.91670139  .00143600  00000+0  83369-3 0  9990,2 45699  53.0425 105.0591 0004363 331.5342 313.4535 15.77590901  6028
STARLINK-1400,45700,53.0534,0.0002495,15.44548772,431.00493419359645,434.4035439718982,1 45700U 20035AV  26035.91670139  .00120125  00000+0  25159-2 0  9992,2 45700  53.0534 179.6089 0002495 339.1921 232.7945 15.44548772  5831
STARLINK-1403,45701,53.0567,0.0001158,15.06389314,546.442350027216,548.046268338423,1 45701U 20035AW  26035.70012826 -.00002203  00000+0 -12911-3 0  9994,2 45701  53.0567 184.7157 0001158  84.1573 275.9548 15.06389314314177
STARLINK-1407,45703,53.0365,0.0010943,15.54297414,396.7738227420359,411.61763615370637,1 45703U 20035AY  26035.57135965  .00100862  00000+0  15008-2 0  9998,2 45703  53.0365 116.3486 0010943 347.5189  12.5547 15.54297414315135
STARLINK-1411,45706,53.0472,0.0003103,15.56096951,396.86286653883144,401.06873653746516,1 45706U 20035BB  26035.61146156  .00078299  00000+0  10976-2 0  9997,2 45706  53.0472 142.3024 0003103 357.4348   2.6646 15.56096951314764
STARLINK-1423,45710,53.0542,0.0001729,15.46323065,426.31658618692563,428.66997313763295,1 45710U 20035BF  26035.69660417  .00103684  00000+0  20494-2 0  9994,2 45710  53.0542 180.2015 0001729 351.0752   9.0224 15.46323065314232
STARLINK-1433,45711,53.053,0.00022,15.48474111,419.69332284948905,422.6850263663173,1 45711U 20035BG  26035.91670139  .00124358  00000+0  22738-2 0  9996,2 45711  53.0530 178.6859 0002200 353.9761 129.3056 15.48474111  5588
STARLINK-1434,45712,53.0513,7e-05,15.23192919,495.7359095774209,496.69831915343275,1 45712U 20035BH  26035.66910177  .00077466  00000+0  32136-2 0  9998,2 45712  53.0513 172.5806 0000700  34.8054 325.2988 15.23192919314353
STARLINK-1465,45731,53.0548,0.0001908,15.44254813,432.2688636863686,434.8682105193275,1 45731U 20038B   26035.91670139  .00138188  00000+0  29150-2 0  9992,2 45731  53.0548  19.7643 0001908 113.1986   0.1407 15.44254813  5840
STARLINK-1471,45735,53.0496,0.0004794,15.46033248,425.08074149122604,431.60679525194064,1 45735U 20038F   26035.13487237  .00032869  00000+0  66795-3 0  9991,2 45735  53.0496 302.5269 0004794 114.8958 245.2547 15.46033248312337
STARLINK-1474,45738,53.0227,0.0005028,15.98238598,275.9582497420233,282.6529740325368,1 45738U 20038J   26035.91670139  .00422024  85449-4  89308-3 0  9991,2 45738  53.0227 231.0810 0005028 239.8949 341.4310 15.98238598  6079
STARLINK-1480,45741,53.0541,0.0010276,15.42888755,430.5847808790886,444.59246017439455,1 45741U 20038M   26035.91670139  .00135087  00000+0  29807-2 0  9997,2 45741  53.0541  13.4614 0010276  64.5135 130.1779 15.42888755  5938
STARLINK-1500,45744,53.0396,0.0004319,15.32903058,464.1996055289537,470.11256969803435,1 45744U 20038Q   26035.57635920  .00025692  00000+0  80579-3 0  9995,2 45744  53.0396 347.8505 0004319 114.7247 245.4204 15.32903058311739
STARLINK-1504,45746,53.025,0.0004547,15.5085229,411.147881775757,417.3248661220259,1 45746U 20038S   26035.13570789  .00035412  00000+0  60767-3 0  9998,2 45746  53.0250 303.7716 0004547 101.0701 259.0818 15.50852290312309
STARLINK-1506,45747,53.0756,0.0004853,15.25255775,486.684382593442,493.3506133491728,1 45747U 20038T   26035.18476269  .00010068  00000+0  40798-3 0  9994,2 45747  53.0756 357.2143 0004853 123.6560 236.4902 15.25255775311570
STARLINK-1464,45751,53.0547,0.0003718,15.40049506,443.425869916432,448.500270728724,1 45751U 20038X   26035.91670139  .00124388  00000+0  30256-2 0  9990,2 45751  53.0547   0.0365 0003718  98.1244 325.0771 15.40049506  5687
STARLINK-1477,45754,53.0535,5.75e-05,15.12333078,528.6898375362753,529.4841682966116,1 45754U 20038AA  26035.61226559  .00035632  00000+0  20395-2 0  9999,2 45754  53.0535   3.0691 0000575  42.3263 317.7773 15.12333078311524
STARLINK-1478,45755,53.0553,0.0006809,15.48600322,416.1903296744422,425.4491489620459,1 45755U 20038AB  26035.91670139  .00151640  00000+0  27474-2 0  9993,2 45755  53.0553 355.5592 0006809  96.0320 269.8210 15.48600322  5897
STARLINK-1484,45756,53.0046,0.0002692,15.84015437,317.2955666930375,320.90135826603546,1 45756U 20038AC  26035.91670139  .00253647  00000+0  10802-2 0  9991,2 45756  53.0046 224.1119 0002692 213.9116  28.7045 15.84015437  5941
STARLINK-1493,45759,53.0549,0.0001229,15.42116423,439.02616001706883,440.70202468557,1 45759U 20038AF  26035.91670139  .00055460  00000+0  12764-2 0  9996,2 45759  53.0549   0.6866 0001229 116.2186 215.6616 15.42116423  5688
STARLINK-1494,45760,53.0525,0.0002197,15.67541346,364.4580879938376,367.42143532291084,1 45760U 20038AG  26034.76772352  .00078637  00000+0  70787-3 0  9991,2 45760  53.0525 319.4477 0002197 137.8761 222.2424 15.67541346312063
STARLINK-1502,45764,53.0552,0.0001516,15.32954314,465.9657769014293,468.0412235010899,1 45764U 20038AL  26035.91670139  .00748714  00000+0  21580-1 0  9998,2 45764  53.0552   1.6370 0001516  78.6887 309.9497 15.32954314  5847
STARLINK-1470,45772,53.0539,0.0002489,15.25127674,488.69250066711356,492.11165942116077,1 45772U 20038AU  26035.54308029  .00030861  00000+0  12243-2 0  9996,2 45772  53.0539 327.7861 0002489 123.3588 236.7647 15.25127674312011
STARLINK-1482,45773,53.129,0.0001152,15.2333559,494.996010720477,496.5797630144116,1 45773U 20038AV  26035.91670139  .01407555  00000+0  53713-1 0  9997,2 45773  53.1290 343.0873 0001152 105.5344 110.5368 15.23335590  5732
STARLINK-1496,45780,53.0572,0.00092,15.42425542,432.6814041936532,445.2248500275373,1 45780U 20038BC  26035.13619535  .00089310  00000+0  20172-2 0  9990,2 45780  53.0572 337.6352 0009200  86.5591 273.6466 15.42425542311825
STARLINK-1497,45781,53.0218,0.0005987,16.06633035,252.12397363746368,260.06780409859493,1 45781U 20038BD  26035.89266348  .00911205  45475-3  11737-2 0  9997,2 45781  53.0218 243.1243 0005987 228.1869 131.8652 16.06633035313220
STARLINK-1513,45786,53.1252,0.0002016,15.22593605,496.6346568167646,499.40712367811284,1 45786U 20038BJ  26035.83334490  .01721394  00000+0  66914-1 0  9996,2 45786  53.1252 343.6021 0002016  88.7515 338.0979 15.22593605  5835
